{
  "norad_id": 66494,
  "name": "STARLINK-35689",
  "history": [
    {
      "epoch": "2026-03-28T21:46:47.384832",
      "apogee_km": 484.8168671070116,
      "perigee_km": 481.02133087305083,
      "latitude_deg": 23.667676277126347,
      "longitude_deg": -163.48068352020346,
      "semi_major_axis_km": 6861.0560989900305,
      "eccentricity": 0.0002766,
      "inclination_deg": 43.0012,
      "raan_deg": 242.5455,
      "arg_perigee_deg": 279.1417,
      "mean_anomaly_deg": 80.9122,
      "mean_motion_rev_day": 15.27623415
    },
    {
      "epoch": "2026-03-28T21:46:47.385696",
      "apogee_km": 484.81652105916055,
      "perigee_km": 481.021670932465,
      "latitude_deg": 23.667682021887007,
      "longitude_deg": -163.4806825602427,
      "semi_major_axis_km": 6861.056095995813,
      "eccentricity": 0.00027655,
      "inclination_deg": 43.0012,
      "raan_deg": 242.5455,
      "arg_perigee_deg": 279.1417,
      "mean_anomaly_deg": 80.9122,
      "mean_motion_rev_day": 15.27623416
    }
  ]
}